{
  "norad_id": 59530,
  "name": "STARLINK-31392",
  "history": [
    {
      "epoch": "2026-04-14T16:59:44.199744Z",
      "apogee_km": 483.94912836188723,
      "perigee_km": 482.1597296372047,
      "latitude_deg": 3.7200728707414055e-05,
      "longitude_deg": 16.827576538819454,
      "height_km": 482.27454207617626,
      "semi_major_axis_km": 6861.191428999546,
      "eccentricity": 0.0001304,
      "inclination_deg": 43.0,
      "raan_deg": 114.6424,
      "arg_perigee_deg": 308.449,
      "mean_anomaly_deg": 51.6245,
      "mean_motion_rev_day": 15.27578219
    },
    {
      "epoch": "2026-04-15T00:50:32.970912Z",
      "apogee_km": 484.8210427906588,
      "perigee_km": 481.43953581979713,
      "latitude_deg": 1.2347168040535228e-05,
      "longitude_deg": -103.04782259956835,
      "height_km": 482.0717747829888,
      "semi_major_axis_km": 6861.267289305228,
      "eccentricity": 0.00024642,
      "inclination_deg": 42.994,
      "raan_deg": 112.7925,
      "arg_perigee_deg": 299.6043,
      "mean_anomaly_deg": 60.4563,
      "mean_motion_rev_day": 15.27552885
    },
    {
      "epoch": "2026-04-16T08:13:33.764160Z",
      "apogee_km": 484.54103146356374,
      "perigee_km": 481.375322148986,
      "latitude_deg": 2.772580525361517e-05,
      "longitude_deg": 137.52741442551425,
      "height_km": 482.65436867070576,
      "semi_major_axis_km": 6861.095176806275,
      "eccentricity": 0.0002307,
      "inclination_deg": 43.0011,
      "raan_deg": 105.4099,
      "arg_perigee_deg": 272.9453,
      "mean_anomaly_deg": 87.1135,
      "mean_motion_rev_day": 15.27610364
    },
    {
      "epoch": "2026-04-17T07:46:00.989184Z",
      "apogee_km": 484.2543261055025,
      "perigee_km": 481.9759787157727,
      "latitude_deg": 2.7011895019576484e-05,
      "longitude_deg": 137.9097874426961,
      "height_km": 482.95036422779566,
      "semi_major_axis_km": 6861.252152410638,
      "eccentricity": 0.00016603,
      "inclination_deg": 43.001,
      "raan_deg": 99.8725,
      "arg_perigee_deg": 267.0716,
      "mean_anomaly_deg": 92.9946,
      "mean_motion_rev_day": 15.2755794
    },
    {
      "epoch": "2026-04-18T05:44:12.092640Z",
      "apogee_km": 484.0947206349365,
      "perigee_km": 482.08479286881357,
      "latitude_deg": 1.5319970931343548e-05,
      "longitude_deg": 162.29194574342944,
      "height_km": 482.86437101059397,
      "semi_major_axis_km": 6861.226756751875,
      "eccentricity": 0.00014647,
      "inclination_deg": 43.0018,
      "raan_deg": 94.7032,
      "arg_perigee_deg": 270.1335,
      "mean_anomaly_deg": 89.9349,
      "mean_motion_rev_day": 15.27566421
    }
  ]
}